{
  "type": "FeatureCollection",
  "features": [
    {
      "type": "Feature",
      "properties": {
        "norad_id": 66697,
        "name": "IRIDE FM3",
        "group": "last-30-days",
        "lat": -3.6408903589735226,
        "lon": -108.4557070354747,
        "alt_km": 513.93577404998,
        "timestamp": "2025-12-26T11:25:43.984932+00:00",
        "meta_object_name": "IRIDE FM3",
        "meta_object_id": "2025-276AH",
        "meta_epoch": "2025-12-26T04:17:44.805120",
        "meta_mean_motion": 15.18215864,
        "meta_eccentricity": 0.000149,
        "meta_inclination": 97.4382,
        "meta_ra_of_asc_node": 71.7284,
        "meta_arg_of_pericenter": 148.9417,
        "meta_mean_anomaly": 211.1906,
        "meta_ephemeris_type": 0,
        "meta_classification_type": "U",
        "meta_norad_cat_id": 66697,
        "meta_element_set_no": 999,
        "meta_rev_at_epoch": 416,
        "meta_bstar": 0.00030457,
        "meta_mean_motion_dot": 6.165e-05,
        "meta_mean_motion_ddot": 0,
        "tle_line1": "1 66697U 25276AH  25360.17899080  .00006165  00000+0  30457-3 0  9993",
        "tle_line2": "2 66697  97.4382  71.7284 0001490 148.9417 211.1906 15.18215864  4168"
      },
      "geometry": {
        "type": "Point",
        "coordinates": [
          -108.4557070354747,
          -3.6408903589735226
        ]
      }
    },
    {
      "type": "Feature",
      "properties": {
        "norad_id": 66698,
        "name": "IRIDE FM4",
        "group": "last-30-days",
        "lat": 74.74597222865191,
        "lon": -79.38545588018147,
        "alt_km": 507.96006460548233,
        "timestamp": "2025-12-26T11:25:43.984943+00:00",
        "meta_object_name": "IRIDE FM4",
        "meta_object_id": "2025-276AJ",
        "meta_epoch": "2025-12-26T04:00:01.998720",
        "meta_mean_motion": 15.17368539,
        "meta_eccentricity": 0.0002685,
        "meta_inclination": 97.4386,
        "meta_ra_of_asc_node": 71.6841,
        "meta_arg_of_pericenter": 241.6593,
        "meta_mean_anomaly": 332.0208,
        "meta_ephemeris_type": 0,
        "meta_classification_type": "U",
        "meta_norad_cat_id": 66698,
        "meta_element_set_no": 999,
        "meta_rev_at_epoch": 130,
        "meta_bstar": 0.0025434,
        "meta_mean_motion_dot": 0.0005104,
        "meta_mean_motion_ddot": 0,
        "tle_line1": "1 66698U 25276AJ  25360.16668980  .00051040  00000+0  25434-2 0  9996",
        "tle_line2": "2 66698  97.4386  71.6841 0002685 241.6593 332.0208 15.17368539  1302"
      },
      "geometry": {
        "type": "Point",
        "coordinates": [
          -79.38545588018147,
          74.74597222865191
        ]
      }
    },
    {
      "type": "Feature",
      "properties": {
        "norad_id": 66699,
        "name": "IRIDE FM5",
        "group": "last-30-days",
        "lat": 73.20897846048499,
        "lon": -82.3451155032712,
        "alt_km": 506.64582171324037,
        "timestamp": "2025-12-26T11:25:43.984953+00:00",
        "meta_object_name": "IRIDE FM5",
        "meta_object_id": "2025-276AK",
        "meta_epoch": "2025-12-26T03:03:15.302016",
        "meta_mean_motion": 15.17444242,
        "meta_eccentricity": 0.0003943,
        "meta_inclination": 97.4398,
        "meta_ra_of_asc_node": 71.6502,
        "meta_arg_of_pericenter": 198.7865,
        "meta_mean_anomaly": 161.3224,
        "meta_ephemeris_type": 0,
        "meta_classification_type": "U",
        "meta_norad_cat_id": 66699,
        "meta_element_set_no": 999,
        "meta_rev_at_epoch": 415,
        "meta_bstar": 0.00098727,
        "meta_mean_motion_dot": 0.00019731,
        "meta_mean_motion_ddot": 0,
        "tle_line1": "1 66699U 25276AK  25360.12726044  .00019731  00000+0  98727-3 0  9996",
        "tle_line2": "2 66699  97.4398  71.6502 0003943 198.7865 161.3224 15.17444242  4155"
      },
      "geometry": {
        "type": "Point",
        "coordinates": [
          -82.3451155032712,
          73.20897846048499
        ]
      }
    },
    {
      "type": "Feature",
      "properties": {
        "norad_id": 66700,
        "name": "IRIDE FM6",
        "group": "last-30-days",
        "lat": -7.5297612092152795,
        "lon": -108.95563768360972,
        "alt_km": 512.7559981701042,
        "timestamp": "2025-12-26T11:25:43.984962+00:00",
        "meta_object_name": "IRIDE FM6",
        "meta_object_id": "2025-276AL",
        "meta_epoch": "2025-12-26T02:41:48.736896",
        "meta_mean_motion": 15.18212155,
        "meta_eccentricity": 0.0004224,
        "meta_inclination": 97.4412,
        "meta_ra_of_asc_node": 71.6764,
        "meta_arg_of_pericenter": 155.9782,
        "meta_mean_anomaly": 204.165,
        "meta_ephemeris_type": 0,
        "meta_classification_type": "U",
        "meta_norad_cat_id": 66700,
        "meta_element_set_no": 999,
        "meta_rev_at_epoch": 415,
        "meta_bstar": 0.0011173,
        "meta_mean_motion_dot": 0.00022847,
        "meta_mean_motion_ddot": 0,
        "tle_line1": "1 66700U 25276AL  25360.11236964  .00022847  00000+0  11173-2 0  9996",
        "tle_line2": "2 66700  97.4412  71.6764 0004224 155.9782 204.1650 15.18212155  4157"
      },
      "geometry": {
        "type": "Point",
        "coordinates": [
          -108.95563768360972,
          -7.5297612092152795
        ]
      }
    },
    {
      "type": "Feature",
      "properties": {
        "norad_id": 66701,
        "name": "IRIDE FM7",
        "group": "last-30-days",
        "lat": 73.5281025938998,
        "lon": -81.76606951885631,
        "alt_km": 508.35782429268875,
        "timestamp": "2025-12-26T11:25:43.984971+00:00",
        "meta_object_name": "IRIDE FM7",
        "meta_object_id": "2025-276AM",
        "meta_epoch": "2025-12-26T03:03:17.659008",
        "meta_mean_motion": 15.17303257,
        "meta_eccentricity": 0.0002663,
        "meta_inclination": 97.4415,
        "meta_ra_of_asc_node": 71.6566,
        "meta_arg_of_pericenter": 237.9367,
        "meta_mean_anomaly": 122.1608,
        "meta_ephemeris_type": 0,
        "meta_classification_type": "U",
        "meta_norad_cat_id": 66701,
        "meta_element_set_no": 999,
        "meta_rev_at_epoch": 415,
        "meta_bstar": -0.0040109,
        "meta_mean_motion_dot": -0.0007909,
        "meta_mean_motion_ddot": 0,
        "tle_line1": "1 66701U 25276AM  25360.12728772 -.00079090  00000+0 -40109-2 0  9996",
        "tle_line2": "2 66701  97.4415  71.6566 0002663 237.9367 122.1608 15.17303257  4151"
      },
      "geometry": {
        "type": "Point",
        "coordinates": [
          -81.76606951885631,
          73.5281025938998
        ]
      }
    },
    {
      "type": "Feature",
      "properties": {
        "norad_id": 66702,
        "name": "IRIDE FM8",
        "group": "last-30-days",
        "lat": 72.3465934297064,
        "lon": -83.76749109684728,
        "alt_km": 508.0433739914115,
        "timestamp": "2025-12-26T11:25:43.984979+00:00",
        "meta_object_name": "IRIDE FM8",
        "meta_object_id": "2025-276AN",
        "meta_epoch": "2025-12-26T03:03:00.148320",
        "meta_mean_motion": 15.17441235,
        "meta_eccentricity": 0.0002835,
        "meta_inclination": 97.4393,
        "meta_ra_of_asc_node": 71.6482,
        "meta_arg_of_pericenter": 244.1084,
        "meta_mean_anomaly": 115.9858,
        "meta_ephemeris_type": 0,
        "meta_classification_type": "U",
        "meta_norad_cat_id": 66702,
        "meta_element_set_no": 999,
        "meta_rev_at_epoch": 415,
        "meta_bstar": 0.0004895,
        "meta_mean_motion_dot": 9.735e-05,
        "meta_mean_motion_ddot": 0,
        "tle_line1": "1 66702U 25276AN  25360.12708505  .00009735  00000+0  48950-3 0  9999",
        "tle_line2": "2 66702  97.4393  71.6482 0002835 244.1084 115.9858 15.17441235  4157"
      },
      "geometry": {
        "type": "Point",
        "coordinates": [
          -83.76749109684728,
          72.3465934297064
        ]
      }
    },
    {
      "type": "Feature",
      "properties": {
        "norad_id": 66703,
        "name": "PELICAN-6",
        "group": "last-30-days",
        "lat": 66.70087894994839,
        "lon": -90.33915179205984,
        "alt_km": 507.49298760373676,
        "timestamp": "2025-12-26T11:25:43.984990+00:00",
        "meta_object_name": "PELICAN-6",
        "meta_object_id": "2025-276AP",
        "meta_epoch": "2025-12-26T04:36:20.489184",
        "meta_mean_motion": 15.17356954,
        "meta_eccentricity": 0.000112,
        "meta_inclination": 97.4401,
        "meta_ra_of_asc_node": 71.7168,
        "meta_arg_of_pericenter": 213.885,
        "meta_mean_anomaly": 146.2312,
        "meta_ephemeris_type": 0,
        "meta_classification_type": "U",
        "meta_norad_cat_id": 66703,
        "meta_element_set_no": 999,
        "meta_rev_at_epoch": 416,
        "meta_bstar": 0.00022018,
        "meta_mean_motion_dot": 4.328e-05,
        "meta_mean_motion_ddot": 0,
        "tle_line1": "1 66703U 25276AP  25360.19190381  .00004328  00000+0  22018-3 0  9994",
        "tle_line2": "2 66703  97.4401  71.7168 0001120 213.8850 146.2312 15.17356954  4166"
      },
      "geometry": {
        "type": "Point",
        "coordinates": [
          -90.33915179205984,
          66.70087894994839
        ]
      }
    }
  ]
}